[{"OBJECT_NAME":"STARLINK-35400","OBJECT_ID":"2025-253Q","EPOCH":"2026-03-09T10:56:57.687072","MEAN_MOTION":15.27626543,"ECCENTRICITY":0.00048764,"INCLINATION":43.0025,"RA_OF_ASC_NODE":214.2678,"ARG_OF_PERICENTER":154.7515,"MEAN_ANOMALY":205.3576,"EPHEMERIS_TYPE":0,"CLASSIFICATION_TYPE":"U","NORAD_CAT_ID":66333,"ELEMENT_SET_NO":999,"REV_AT_EPOCH":2020,"BSTAR":0.0010820894,"MEAN_MOTION_DOT":0.00029684,"MEAN_MOTION_DDOT":0},{"OBJECT_NAME":"CSSWE","OBJECT_ID":"2012-048D","EPOCH":"2026-03-09T08:13:05.901888","MEAN_MOTION":15.39093253,"ECCENTRICITY":0.00676686,"INCLINATION":64.6623,"RA_OF_ASC_NODE":70.3925,"ARG_OF_PERICENTER":202.9126,"MEAN_ANOMALY":156.8988,"EPHEMERIS_TYPE":0,"CLASSIFICATION_TYPE":"U","NORAD_CAT_ID":38761,"ELEMENT_SET_NO":999,"REV_AT_EPOCH":10100,"BSTAR":0.00070329542,"MEAN_MOTION_DOT":0.0002953,"MEAN_MOTION_DDOT":0}]
